{"epoch":1784799577,"count":18318,"objects":[{"id":"49190","name":"ONEWEB-0320","type":"PAYLOAD","l1":"1 49190U 21083E   26203.59650106  .00000108  00000-0  24174-3 0  9992","l2":"2 49190  87.9193 328.4203 0001977  99.2892 260.8464 13.18685310234642"},{"id":"49191","name":"ONEWEB-0321","type":"PAYLOAD","l1":"1 49191U 21083F   26203.88249054 -.00000007  00000-0 -49240-4 0  9993","l2":"2 49191  87.9178 267.3217 0002177 102.4136 257.7242 13.20770878241546"},{"id":"49192","name":"ONEWEB-0322","type":"PAYLOAD","l1":"1 49192U 21083G   26203.73033750 -.00000198  00000-0 -57773-3 0  9992","l2":"2 49192  87.8978 313.1631 0002180 111.0153 249.1209 13.13470857235584"},{"id":"49193","name":"ONEWEB-0324","type":"PAYLOAD","l1":"1 49193U 21083H   26203.79716244 -.00000010  00000-0 -57215-4 0  9990","l2":"2 49193  87.9205 328.3714 0002009  95.2585 264.8776 13.18687344234691"},{"id":"49194","name":"ONEWEB-0325","type":"PAYLOAD","l1":"1 49194U 21083J   26203.80052201 -.00000026  00000-0 -97551-4 0  9993","l2":"2 49194  87.9196 328.3757 0001820 100.6795 259.4542 13.18687720234703"},{"id":"49195","name":"ONEWEB-0326","type":"PAYLOAD","l1":"1 49195U 21083K   26203.73998318  .00000025  00000-0  30641-4 0  9998","l2":"2 49195  87.9204 328.3882 0001624  95.6119 264.5198 13.18686875234689"},{"id":"49196","name":"ONEWEB-0327","type":"PAYLOAD","l1":"1 49196U 21083L   26203.81558095 -.00000044  00000-0 -14356-3 0  9999","l2":"2 49196  87.9194 328.3747 0001497 101.3455 258.7846 13.18686460234713"},{"id":"49197","name":"ONEWEB-0328","type":"PAYLOAD","l1":"1 49197U 21083M   26203.72018018 -.00000297  00000-0 -84960-3 0  9994","l2":"2 49197  87.8991 313.1415 0002023  96.6799 263.4561 13.13470308235563"},{"id":"49198","name":"ONEWEB-0331","type":"PAYLOAD","l1":"1 49198U 21083N   26203.80896828  .00000026  00000-0  32420-4 0  9990","l2":"2 49198  87.9204 328.3685 0001622  92.3916 267.7402 13.18686352234706"},{"id":"49199","name":"ONEWEB-0333","type":"PAYLOAD","l1":"1 49199U 21083P   26203.71510150 -.00000304  00000-0 -86788-3 0  9998","l2":"2 49199  87.8981 313.1655 0001920 101.1642 258.9703 13.13469758235579"},{"id":"49200","name":"ONEWEB-0334","type":"PAYLOAD","l1":"1 49200U 21083Q   26203.59377312  .00000050  00000-0  91596-4 0  9998","l2":"2 49200  87.9176 267.3892 0002642 111.6341 248.5074 13.20769724241461"},{"id":"49201","name":"ONEWEB-0335","type":"PAYLOAD","l1":"1 49201U 21083R   26203.32913693 -.00000223  00000-0 -64642-3 0  9993","l2":"2 49201  87.8980 313.2393 0001819  96.6593 263.4744 13.13469494235531"},{"id":"49202","name":"ONEWEB-0336","type":"PAYLOAD","l1":"1 49202U 21083S   26203.75742829  .00000337  00000-0  88906-3 0  9995","l2":"2 49202  87.8977 313.1495 0001751  93.2083 266.9247 13.13468988235580"},{"id":"49203","name":"ONEWEB-0337","type":"PAYLOAD","l1":"1 49203U 21083T   26203.53892171  .00000223  00000-0  57680-3 0  9997","l2":"2 49203  87.8980 313.1986 0001974  93.6277 266.5078 13.13469409235550"},{"id":"49204","name":"ONEWEB-0338","type":"PAYLOAD","l1":"1 49204U 21083U   26203.19225678  .00000037  00000-0  57972-4 0  9990","l2":"2 49204  87.9175 267.4709 0002190 105.4506 254.6869 13.20771086241435"},{"id":"49205","name":"ONEWEB-0339","type":"PAYLOAD","l1":"1 49205U 21083V   26203.69987028 -.00000018  00000-0 -84576-4 0  9991","l2":"2 49205  87.8982 313.1601 0002196 104.0692 256.0682 13.13468860235558"}]}